SHIJIAN-6 04B (SJ-6 04B)
1 37180U 10051B   24110.16574320  .00003352  00000+0  30463-3 0  9993
2 37180  97.8350  99.5385 0012630  70.4217 289.8366 14.95878786737580
FENGYUN 3B              
1 37214U 10059A   24110.21635628  .00000317  00000+0  18921-3 0  9997
2 37214  99.0608 137.4717 0021135 258.6821 173.8643 14.14472719695917
COSMO-SKYMED 4          
1 37216U 10060A   24110.17813451  .00001701  00000+0  22027-3 0  9998
2 37216  97.8870 294.1903 0001580  85.5580 274.5814 14.82146302727753
ELEKTRO-L 1 (GOMS 2)    
1 37344U 11001A   24109.54065454  .00000145  00000+0  00000+0 0  9991
2 37344   7.8772  62.0932 0006160  12.2646 359.8767  1.00185081 48551
RESOURCESAT-2           
1 37387U 11015A   24110.18481762  .00000500  00000+0  24711-3 0  9993
2 37387  98.5806 177.5780 0003198 290.8877  69.1958 14.21694446674605
YOUTHSAT                
1 37388U 11015B   24109.96487539  .00000717  00000+0  32438-3 0  9991
2 37388  98.3003 112.7623 0015532 136.7971 285.6284 14.24839245675214
APRIZESAT 6             
1 37793U 11044F   24110.23576726  .00002452  00000+0  37293-3 0  9994
2 37793  98.3108 352.1708 0046701  84.4813  32.3326 14.74232930680932
JUGNU                   
1 37839U 11058B   24110.24137184  .00000985  00000+0  37838-3 0  9996
2 37839  19.9622  59.6739 0018702   6.8051 136.5092 14.13168856647374
SRMSAT                  
1 37841U 11058D   24109.52266980  .00000747  00000+0  26410-3 0  9995
2 37841  19.9711 157.6405 0011852 157.6959 348.3235 14.11077766646127
SUOMI NPP               
1 37849U 11061A   24110.18854887  .00000317  00000+0  17107-3 0  9996
2 37849  98.7185  49.0649 0001719  84.1444 275.9928 14.19548665646496
M-CUBED & EXP-1 PRIME   
1 37855U 11061F   24109.96224779  .00202800  00000+0  22243-2 0  9995
2 37855 101.6879 257.7830 0058452 167.3757 192.8965 15.60428358684217
YAOGAN-12               
1 37875U 11066B   24110.16722759  .00019048  00000+0  79191-3 0  9992
2 37875  97.2264 171.8091 0005623 158.8204 201.3267 15.23816127692434
ZIYUAN 3-1 (ZY 3-1)     
1 38046U 12001A   24110.15194600  .00022547  00000+0  78391-3 0  9999
2 38046  97.2520 173.4474 0004350  12.9818 347.1534 15.29724542681901
BEIDOU-2 M4             
1 38251U 12018B   24107.11341669 -.00000083  00000+0  00000+0 0  9996
2 38251  56.2857 330.6821 0011952 273.0940  86.8067  1.86232167 81190
ARIRANG-3 (KOMPSAT-3)   
1 38338U 12025B   24110.17507628  .00002063  00000+0  41484-3 0  9993
2 38338  98.2571  56.4093 0011601  67.0732 293.1693 14.62639301636115
HORYU-2                 
1 38340U 12025D   24109.71878459  .00007109  00000+0  92128-3 0  9994
2 38340  98.1596 208.4044 0009646 224.0211 136.0233 14.81097340631428
METOP-B                 
1 38771U 12049A   24110.18930535  .00000435  00000+0  21835-3 0  9997
2 38771  98.6325 168.7206 0001275 129.6034 230.5256 14.21506238601160
SJ-9A                   
1 38860U 12056A   24110.17464436  .00003246  00000+0  41506-3 0  9995
2 38860  97.5914 105.9987 0027080 334.9639  25.0259 14.81773043621780
COSMOS 2484             
1 39059U 13001C   24109.89299771  .00000037  00000+0  19780-3 0  9996
2 39059  82.5062 352.6665 0026111 317.7509  42.1558 12.42895676510503
SARAL                   
1 39086U 13009A   24110.19466317  .00000458  00000+0  18558-3 0  9990
2 39086  98.5517 296.1274 0003077  96.8243 263.3291 14.32384491582632
AAUSAT 3                
1 39087U 13009B   24110.03725326  .00002267  00000+0  76958-3 0  9990
2 39087  98.3731 302.0877 0013047  63.5019 296.7505 14.37545850584009
STRAND-1                
1 39090U 13009E   24110.05237074  .00001163  00000+0  41488-3 0  9998
2 39090  98.3834 299.9675 0010020  72.1792 288.0487 14.35982423583774
BRITE-AUSTRIA           
1 39091U 13009F   24109.53000724  .00000734  00000+0  26859-3 0  9998
2 39091  98.3872 298.7254 0011548  79.3934 280.8552 14.35744368583700
UNIBRITE                
1 39092U 13009G   24109.47198017  .00000739  00000+0  27102-3 0  9992
2 39092  98.3912 298.5786 0010437  75.9860 284.2486 14.35617421583646
AIST-2 (RS-43)          
1 39133U 13015D   24110.21132349  .00010467  00000+0  61227-3 0  9990
2 39133  64.8712 291.4981 0005921 283.3472  76.6991 15.12245791604442
GAOFEN-1                
1 39150U 13018A   24110.03480354  .00002407  00000+0  35185-3 0  9993
2 39150  97.9915 183.0206 0018534 286.8253  73.0924 14.76521268591838
NEE-01 PEGASO           
1 39151U 13018B   24109.26447860  .00007983  00000+0  93702-3 0  9995
2 39151  98.0273 225.8418 0014468 231.7072 128.2841 14.85134871593077
TURKSAT-3USAT           
1 39152U 13018C   24110.19162324  .00008999  00000+0  10212-2 0  9991
2 39152  97.8283 196.7925 0015035 190.2481 169.8430 14.86470528593448
CUBEBUG-1 (CAPITAN BETO)
1 39153U 13018D   24110.14029860  .00009024  00000+0  10184-2 0  9992
2 39153  98.0653 234.6705 0014258 221.2552 138.7587 14.86717335593438
PROBA-V                 
1 39159U 13021A   24110.02155526  .00000309  00000+0  15471-3 0  9990
2 39159  98.3091 119.8320 0002989 291.0627  69.0233 14.23237431568842
ESTCUBE 1               
1 39161U 13021C   24110.16777632  .00005043  00000+0  73934-3 0  9994
2 39161  97.8322 178.4363 0010188  66.4772 293.7507 14.75961539588425
ARIRANG-5 (KOMPSAT-5)   
1 39227U 13042A   24110.17713429  .00005004  00000+0  36150-3 0  9991
2 39227  97.6220 296.9064 0000925 122.5159 237.6156 15.04521251585282
GONETS-M 5              
1 39249U 13048A   24109.91825536  .00000066  00000+0  40755-3 0  9993
2 39249  82.4767 115.4091 0017706 131.2248 229.0361 12.42892775480839
GONETS-M 7              
1 39251U 13048C   24109.97031249  .00000075  00000+0  46814-3 0  9994
2 39251  82.4836 117.8734 0018250 131.9697 228.2941 12.42870839480796
FENGYUN 3C              
1 39260U 13052A   24110.24369467  .00000395  00000+0  22031-3 0  9997
2 39260  98.4296 112.9754 0011972 132.8016 227.4168 14.16179581546985
CASSIOPE                
1 39265U 13055A   24110.18322465  .00040148  00000+0  85261-3 0  9999
2 39265  80.9526 261.3650 0509911  90.1695 275.7921 14.67178633549710
APRIZESAT 7             
1 39416U 13066A   24109.83853648  .00004805  00000+0  53512-3 0  9995
2 39416  97.6651  71.0693 0037511 305.9709  53.8030 14.87039106563715
ZACUBE-1 (TSHEPISOSAT)  
1 39417U 13066B   24109.84410005  .00011479  00000+0  12143-2 0  9992
2 39417  97.7290  67.1978 0051497 359.2209   0.8920 14.88354375562756
APRIZESAT 8             
1 39425U 13066K   24109.46569052  .00004144  00000+0  49543-3 0  9992
2 39425  97.7235  63.8459 0049426   3.7360 356.4213 14.83838014562385
CINEMA-3 (KHUSAT-2)     
1 39426U 13066L   24109.33320314  .00004309  00000+0  62810-3 0  9990
2 39426  97.8425  33.3494 0096667 243.4612 115.6662 14.73167811557927
TRITON-1                
1 39427U 13066M   24110.18684386  .00007117  00000+0  10150-2 0  9997
2 39427  97.8427  30.0976 0101980 272.2352  86.7182 14.73507135557714
DELFI-N3XT              
1 39428U 13066N   24109.33941273  .00013379  00000+0  17476-2 0  9999
2 39428  97.8388  29.2992 0100971 282.9359  76.0590 14.77044813557250
GOMX-1                  
1 39430U 13066Q   24110.20255473  .00005623  00000+0  93939-3 0  9992
2 39430  97.7416 348.1477 0142690  80.4127 281.3166 14.63685838554411
BRITE-PL1 (LEM)         
1 39431U 13066R   24109.93160125  .00001443  00000+0  30952-3 0  9992
2 39431  97.6985 273.4263 0196418 305.5435  52.7584 14.48775311549535
ICUBE-1                 
1 39432U 13066S   24109.86934051  .00014524  00000+0  11464-2 0  9992
2 39432  97.5089  93.5977 0028535 172.3872 187.7791 15.00485397565046
HUMSAT-D                
1 39433U 13066T   24109.54002748  .00022599  00000+0  15096-2 0  9993
2 39433  97.4882 102.5758 0021945 125.9794 234.3473 15.06801950565768
VELOX-PII               
1 39438U 13066Y   24109.79773852  .00009002  00000+0  10558-2 0  9998
2 39438  97.7828  59.0076 0064978  66.6775 294.1259 14.83659383560360
FIRST-MOVE              
1 39439U 13066Z   24110.13617617  .00028588  00000+0  23780-2 0  9996
2 39439  97.7189  74.2288 0047639 337.3863  22.5259 14.97749051563123
CUBEBUG-2 (LO-74)       
1 39440U 13066AA  24109.80195132  .00009118  00000+0  10898-2 0  9997
2 39440  97.8090  54.8028 0072757 107.6572 253.2603 14.82499033559539
NEE-02 KRYSAOR          
1 39441U 13066AB  24109.80502913  .00005459  00000+0  70076-3 0  9996
2 39441  97.8183  50.8954 0076404 128.1479 232.6651 14.79552387559154
FUNCUBE-1 (AO-73)       
1 39444U 13066AE  24109.44299614  .00015220  00000+0  15101-2 0  9994
2 39444  97.7145  69.7882 0048356 342.3033  17.6499 14.90966758561208
HINCUBE                 
1 39445U 13066AF  24109.87982838  .00015329  00000+0  15338-2 0  9991
2 39445  97.7154  69.8906 0048691 343.6887  16.2761 14.90617014561193
UWE-3                   
1 39446U 13066AG  24109.37930329  .00010405  00000+0  11763-2 0  9993
2 39446  97.7759  60.4492 0063135  57.0448 303.6816 14.85203149559826
COSMOS 2488             
1 39483U 13076A   24110.16341676  .00000052  00000+0  30309-3 0  9990
2 39483  82.4802 300.4023 0019419  16.5543 343.6166 12.42883122468069
COSMOS 2489             
1 39484U 13076B   24109.89481356  .00000073  00000+0  45806-3 0  9990
2 39484  82.4841 301.7090 0021512  18.2562 341.9285 12.42875724467890
COSMOS 2490             
1 39485U 13076C   24109.86743176  .00000070  00000+0  43560-3 0  9991
2 39485  82.4785 300.1401 0021495  33.0143 327.2274 12.42889610467824
AIST-1 (RS-41)          
1 39492U 13078C   24110.19465405  .00003934  00000+0  39257-3 0  9995
2 39492  82.4161 312.6819 0019433  39.3990 320.8637 14.91171990559778
KAZEOSAT 1              
1 39731U 14024A   24110.16498274  .00001054  00000+0  33470-3 0  9992
2 39731  98.3960 187.5765 0001311  88.5041 271.6298 14.41988646524895
COSMOS 2496             
1 39761U 14028A   24109.90647177  .00000039  00000+0  21212-3 0  9990
2 39761  82.4444 243.0829 0019118   2.3616 357.7550 12.42891468449464
